1 45748U 20038U   22365.48440109  .00005385  00000-0  38012-3 0  9997
2 45748  53.0547  62.9296 0001949  53.5200 306.5968 15.06403300140718
1 45748U 20038U   23001.14787599  .00002668  00000-0  19795-3 0  9993
2 45748  53.0543  59.9512 0002218  54.0968 306.0227 15.06399277141753
1 45748U 20038U   23001.41327640 -.00000197  00000-0  56651-5 0  9990
2 45748  53.0568  58.7553 0001534  40.1213 319.9889 15.06384513140855
1 45748U 20038U   23001.41327640 -.00000197  00000-0  56651-5 0  9990
2 45748  53.0568  58.7553 0001534  40.1213 319.9889 15.06384513141799
1 45748U 20038U   23001.87769911 -.00001331  00000-0 -70451-4 0  9996
2 45748  53.0569  56.6722 0001902  49.4946 310.6209 15.06397775140921
1 45748U 20038U   23001.87769911 -.00001331  00000-0 -70451-4 0  9996
2 45748  53.0569  56.6722 0001902  49.4946 310.6209 15.06397775141865
1 45748U 20038U   23002.40846103 -.00000463  00000-0 -12181-4 0  9996
2 45748  53.0562  54.2901 0001885  42.3700 317.7434 15.06410550141945
1 45748U 20038U   23002.54115745 -.00000086  00000-0  13164-4 0  9994
2 45748  53.0558  53.6980 0002169  38.0984 322.0158 15.06405262141027
1 45748U 20038U   23003.13828428 -.00000091  00000-0  12837-4 0  9991
2 45748  53.0551  51.0168 0002167  40.1845 319.9304 15.06395676142057
1 45748U 20038U   23003.53636769  .00002495  00000-0  18637-3 0  9992
2 45748  53.0558  49.2285 0002026  41.5070 318.6073 15.06388770141170
1 45748U 20038U   23004.39887635  .00000688  00000-0  65088-4 0  9992
2 45748  53.0557  45.3566 0002142  41.4817 318.6334 15.06400075142247
1 45748U 20038U   23004.79695416  .00005136  00000-0  36349-3 0  9990
2 45748  53.0556  43.5690 0002019  41.1996 318.9145 15.06395560141369
1 45748U 20038U   23005.12868265  .00003063  00000-0  22442-3 0  9998
2 45748  53.0558  42.0803 0002118  42.3378 317.7774 15.06407325142356
1 45748U 20038U   23005.39406809  .00004425  00000-0  31568-3 0  9991
2 45748  53.0550  40.8894 0002180  42.7273 317.3885 15.06414174141450
1 45748U 20038U   23005.79215060  .00001667  00000-0  13080-3 0  9996
2 45748  53.0554  39.1046 0001898  46.5768 313.5379 15.06406882141510
1 45748U 20038U   23005.79215060  .00001667  00000-0  13080-3 0  9996
2 45748  53.0554  39.1046 0001898  46.5768 313.5379 15.06406882142454
1 45748U 20038U   23006.45562991 -.00003942  00000-0 -24595-3 0  9991
2 45748  53.0556  36.1205 0001881  33.6708 326.4400 15.06385260141614
1 45748U 20038U   23006.45562991 -.00003942  00000-0 -24595-3 0  9991
2 45748  53.0556  36.1205 0001881  33.6708 326.4400 15.06385260142558
1 45748U 20038U   23007.11910110 -.00002206  00000-0 -12926-3 0  9992
2 45748  53.0552  33.1467 0002266  16.1182 343.9879 15.06389002141710
1 45748U 20038U   23007.45083045  .00003789  00000-0  27310-3 0  9995
2 45748  53.0545  31.6558 0001993  35.1069 325.0051 15.06401708142708
1 45748U 20038U   23007.78256766  .00003925  00000-0  28223-3 0  9999
2 45748  53.0543  30.1662 0001819  25.9433 334.1646 15.06398763141813
1 45748U 20038U   23008.04796053  .00002896  00000-0  21326-3 0  9990
2 45748  53.0533  28.9738 0001908  36.4022 323.7097 15.06391631142790
1 45748U 20038U   23008.44604080  .00004713  00000-0  33516-3 0  9996
2 45748  53.0532  27.1859 0001994  37.5817 322.5311 15.06395684141914
1 45748U 20038U   23009.04315992  .00003383  00000-0  24586-3 0  9993
2 45748  53.0536  24.5073 0002283  34.5676 325.5461 15.06403818142941
1 45748U 20038U   23009.44124281  .00000701  00000-0  65977-4 0  9997
2 45748  53.0544  22.7202 0002268  36.4491 323.6652 15.06399532142064
1 45748U 20038U   23009.44124281  .00000701  00000-0  65977-4 0  9997
2 45748  53.0544  22.7202 0002268  36.4491 323.6652 15.06399532143009
1 45748U 20038U   23010.43644284 -.00000315  00000-0 -22471-5 0  9994
2 45748  53.0554  18.2524 0002219  39.6298 320.4853 15.06399226142213
1 45748U 20038U   23011.16625020 -.00003628  00000-0 -22472-3 0  9991
2 45748  53.0551  14.9765 0002093  34.4006 325.7118 15.06411206143261
1 45748U 20038U   23011.29894930  .00003147  00000-0  23013-3 0  9999
2 45748  53.0559  14.3811 0002193  38.4604 321.6541 15.06397526142345
1 45748U 20038U   23011.29894930  .00003147  00000-0  23013-3 0  9999
2 45748  53.0559  14.3811 0002193  38.4604 321.6541 15.06397526143289
1 45748U 20038U   23011.69702810  .00000434  00000-0  48070-4 0  9995
2 45748  53.0557  12.5941 0002146  39.7153 320.3993 15.06404784142407
1 45748U 20038U   23012.69223326 -.00002819  00000-0 -17046-3 0  9995
2 45748  53.0547   8.1264 0002078  46.1084 314.0076 15.06386970143492
1 45748U 20038U   23012.95762878 -.00003314  00000-0 -20369-3 0  9997
2 45748  53.0546   6.9350 0002946  56.9807 303.1465 15.06382697142592
1 45748U 20038U   23013.35572030 -.00005674  00000-0 -36259-3 0  9997
2 45748  53.0545   5.1472 0002148  49.5044 310.6132 15.06369811142656
1 45748U 20038U   23013.35572030 -.00005674  00000-0 -36259-3 0  9997
2 45748  53.0545   5.1472 0002148  49.5044 310.6132 15.06369811143590
1 45748U 20038U   23013.68745237 -.00001485  00000-0 -80847-4 0  9993
2 45748  53.0548   3.6581 0001944  53.6474 306.4694 15.06382375143645
1 45748U 20038U   23013.95283971  .00002901  00000-0  21362-3 0  9993
2 45748  53.0556   2.4673 0001867  54.6692 305.4471 15.06389629142741
1 45748U 20038U   23014.35092440  .00033787  00000-0  22749-2 0  9992
2 45748  53.0547   0.6797 0001769  61.7346 298.3821 15.06422266143749
1 45748U 20038U   23014.68265996  .00018019  00000-0  12251-2 0  9994
2 45748  53.0547 359.1911 0001695  68.3250 291.7920 15.06410775143798
1 45748U 20038U   23015.34612837  .00019833  00000-0  13461-2 0  9997
2 45748  53.0553 356.2133 0002159  77.5146 282.6085 15.06413973142952
1 45748U 20038U   23015.34612837  .00019833  00000-0  13461-2 0  9997
2 45748  53.0553 356.2133 0002159  77.5146 282.6085 15.06413973143896
1 45748U 20038U   23016.14228532  .00013145  00000-0  89931-3 0  9997
2 45748  53.0557 352.6395 0001938  71.5817 288.5383 15.06417950144013
1 45748U 20038U   23016.20862852  .00019028  00000-0  12918-2 0  9999
2 45748  53.0556 352.3394 0001604  84.7753 275.3419 15.06431502143082
1 45748U 20038U   23016.20862852  .00019028  00000-0  12918-2 0  9999
2 45748  53.0556 352.3394 0001604  84.7753 275.3419 15.06431502144027
1 45748U 20038U   23016.93845352  .00003322  00000-0  24186-3 0  9996
2 45748  53.0544 349.0639 0001441  96.9934 263.1219 15.06390460143191
1 45748U 20038U   23016.93845352  .00003322  00000-0  24186-3 0  9996
2 45748  53.0544 349.0639 0001441  96.9934 263.1219 15.06390460144136
1 45748U 20038U   23017.33654044  .00006184  00000-0  43386-3 0  9999
2 45748  53.0549 347.2779 0001752 106.3189 253.7993 15.06384168143253
1 45748U 20038U   23017.33654044  .00006184  00000-0  43386-3 0  9999
2 45748  53.0549 347.2779 0001752 106.3189 253.7993 15.06384168144197
1 45748U 20038U   23018.33174838  .00021552  00000-0  14609-2 0  9999
2 45748  53.0559 342.8090 0001669 100.8998 259.2179 15.06410890143401
1 45748U 20038U   23018.33174838  .00021552  00000-0  14609-2 0  9999
2 45748  53.0559 342.8090 0001669 100.8998 259.2179 15.06410890144345
1 45748U 20038U   23019.06155577  .00011416  00000-0  78360-3 0  9992
2 45748  53.0561 339.5324 0001724 103.0543 257.0638 15.06421811144457
1 45748U 20038U   23019.26059166  .00013448  00000-0  91921-3 0  9996
2 45748  53.0562 338.6369 0001721  99.3480 260.7704 15.06430411143541
1 45748U 20038U   23020.12310123  .00004204  00000-0  30089-3 0  9994
2 45748  53.0561 334.7654 0001750 109.0929 251.0249 15.06407319144610
1 45748U 20038U   23020.25579475  .00005198  00000-0  36752-3 0  9991
2 45748  53.0557 334.1697 0001820 102.5547 257.5645 15.06407076143696
1 45748U 20038U   23020.58753607  .00002129  00000-0  16188-3 0  9990
2 45748  53.0562 332.6818 0002131  82.3932 277.7299 15.06381982144685
1 45748U 20038U   23021.11830909  .00001900  00000-0  14645-3 0  9993
2 45748  53.0557 330.3003 0001422  84.7399 275.3752 15.06395758144768
1 45748U 20038U   23022.24620606  .00008824  00000-0  61035-3 0  9996
2 45748  53.0546 325.2364 0001590  84.4809 275.6362 15.06412224144935
1 45748U 20038U   23023.10872069  .00000041  00000-0  21627-4 0  9991
2 45748  53.0561 321.3663 0001200  96.6407 263.4719 15.06394792145063
1 45748U 20038U   23024.23661453  .00003073  00000-0  22509-3 0  9996
2 45748  53.0559 316.3021 0001359  95.9996 264.1148 15.06405224145238
1 45748U 20038U   23024.83374489  .00001415  00000-0  11388-3 0  9993
2 45748  53.0568 313.6233 0001437 101.4569 258.6581 15.06394785145327
1 45748U 20038U   23025.49720824  .00002671  00000-0  19814-3 0  9991
2 45748  53.0557 310.6440 0001247  95.8535 264.2596 15.06405032144483
1 45748U 20038U   23025.82894773  .00003042  00000-0  22307-3 0  9997
2 45748  53.0564 309.1534 0001524  86.0625 274.0538 15.06396130144537
1 45748U 20038U   23026.09432988  .00001818  00000-0  14090-3 0  9992
2 45748  53.0558 307.9643 0001420  88.8756 271.2395 15.06405568144577
1 45748U 20038U   23026.09432988  .00001818  00000-0  14090-3 0  9992
2 45748  53.0558 307.9643 0001420  88.8756 271.2395 15.06405568145512
1 45748U 20038U   23027.15587764  .00001494  00000-0  11917-3 0  9998
2 45748  53.0542 303.1966 0001235 100.2643 259.8485 15.06405574144731
1 45748U 20038U   23027.15587764  .00001494  00000-0  11917-3 0  9998
2 45748  53.0542 303.1966 0001235 100.2643 259.8485 15.06405574145675
1 45748U 20038U   23028.15108213  .00001550  00000-0  12294-3 0  9999
2 45748  53.0550 298.7288 0001185  88.9380 271.1745 15.06404659145820
1 45748U 20038U   23028.54916364 -.00000354  00000-0 -48849-5 0  9996
2 45748  53.0552 296.9391 0001134 128.0624 232.0468 15.06396337144941
1 45748U 20038U   23028.88090105 -.00000634  00000-0 -23675-4 0  9999
2 45748  53.0547 295.4545 0001205  95.2229 264.8897 15.06396252144995
1 45748U 20038U   23029.14628627  .00000920  00000-0  80637-4 0  9992
2 45748  53.0544 294.2631 0001229  90.0809 270.0321 15.06401330145972
1 45748U 20038U   23029.87610430  .00000824  00000-0  74209-4 0  9996
2 45748  53.0548 290.9853 0001334  98.5339 261.5801 15.06399339145145
1 45748U 20038U   23030.14148921  .00001980  00000-0  15175-3 0  9999
2 45748  53.0542 289.7951 0001298  92.6975 267.4162 15.06403562145187
1 45748U 20038U   23031.13669539  .00001601  00000-0  12637-3 0  9992
2 45748  53.0553 285.3277 0001223  88.8298 271.2831 15.06400321145338
1 45748U 20038U   23031.13669539  .00001601  00000-0  12637-3 0  9992
2 45748  53.0553 285.3277 0001223  88.8298 271.2831 15.06400321146272
1 45748U 20038U   23031.73381642  .00000310  00000-0  39727-4 0  9990
2 45748  53.0541 282.6465 0001170  91.7026 268.4097 15.06399011145422
